satname,norad_id,inclination_deg,eccentricity,mean_motion_rev_per_day,perigee_km,apogee_km,l1,l2
STARLINK-1316,45415,53.1537,0.0001235,15.41522657,440.77251919818536,442.4569978825448,1 45415U 20019BH  26186.33946869  .00044103  00000+0  10389-2 0  9996,2 45415  53.1537 298.1958 0001235 211.8317 148.2615 15.41522657348078
STARLINK-1286,45417,53.0445,0.0005446,15.67248327,363.1070531514706,370.4536171128966,1 45417U 20019BK  26185.48561255  .00106134  00000+0  96125-3 0  9991,2 45417  53.0445 283.4776 0005446 343.8413  16.2428 15.67248327348436
STARLINK-1308,45419,53.0456,0.0004424,15.68628568,359.8409718423154,365.8053734030518,1 45419U 20019BM  26186.31512652  .00081314  00000+0  69960-3 0  9992,2 45419  53.0456 298.5017 0004424 108.3433 251.8064 15.68628568348046
STARLINK-1329,45531,53.0385,0.0003759,15.77312168,335.53505917058646,340.584295832733,1 45531U 20025A   26186.29278170  .00112613  00000+0  66528-3 0  9999,2 45531  53.0385 220.6890 0003759 358.4618   1.6389 15.77312168343918
STARLINK-1338,45532,53.041,0.0002711,15.74223517,345.0185204413938,348.6648038720141,1 45532U 20025B   26186.51618584  .00080881  00000+0  55030-3 0  9999,2 45532  53.0410 227.0568 0002711  53.0142 307.1124 15.74223517343847
STARLINK-1350,45535,53.07,0.0002227,15.39604804,445.7570435996513,448.7970830234499,1 45535U 20025E   26186.44274545  .00085819  00000+0  21322-2 0  9991,2 45535  53.0700 198.9040 0002227  36.7725 323.3431 15.39604804344272
STARLINK-1362,45538,53.155,0.0004297,15.39962123,443.2887905073985,449.1536439592892,1 45538U 20025H   26185.62920151  .00250978  00000+0  60116-2 0  9998,2 45538  53.1550 274.2101 0004297 312.5282  47.5360 15.39962123343138
STARLINK-1368,45540,53.1571,0.0002777,15.40152911,443.7626549780589,447.5525905115328,1 45540U 20025K   26185.51013140  .00120140  00000+0  29147-2 0  9996,2 45540  53.1571 275.1120 0002777 313.0809  46.9963 15.40152911343104
STARLINK-1371,45542,53.0402,0.0002177,15.7123629,353.89674578337053,356.82851152168587,1 45542U 20025M   26186.30149331  .00081011  00000+0  62583-3 0  9993,2 45542  53.0402 238.5853 0002177  45.4276 314.6918 15.71236290343665
STARLINK-1372,45543,53.1549,0.0003271,15.40559045,442.22660505302247,446.68994688256043,1 45543U 20025N   26185.65565676  .00072458  00000+0  17492-2 0  9998,2 45543  53.1549 273.8387 0003271 295.1163  64.9502 15.40559045342236
STARLINK-1373,45544,53.0428,0.0002793,15.7301567,348.404510122009,352.16300595744997,1 45544U 20025P   26186.33924062  .00072076  00000+0  51746-3 0  9990,2 45544  53.0428 233.1269 0002793  47.5488 312.5766 15.73015670343745
STARLINK-1327,45555,53.038,0.0002515,15.74838654,343.39945771481234,346.7812410715578,1 45555U 20025AA  26186.45094177  .00090177  00000+0  59633-3 0  9995,2 45555  53.0380 209.7879 0002515  60.5853 299.5417 15.74838654344073
STARLINK-1356,45564,53.0399,0.0004293,15.67656033,362.71574338618484,368.5059252767405,1 45564U 20025AK  26186.30007019  .00069090  00000+0  62019-3 0  9990,2 45564  53.0399 224.6418 0004293  25.1533 334.9691 15.67656033343859
STARLINK-1357,45565,53.0423,0.0001316,15.72803918,350.0021184604939,351.7731977505082,1 45565U 20025AL  26186.25036461  .00093829  00000+0  67672-3 0  9995,2 45565  53.0423 180.6723 0001316 183.7187 176.3821 15.72803918344471
STARLINK-1361,45567,53.0397,0.0002542,15.71329785,353.3839403021302,356.8071157193708,1 45567U 20025AN  26186.52996763  .00067047  00000+0  51757-3 0  9997,2 45567  53.0397 221.5662 0002542  60.4430 299.6840 15.71329785343927
STARLINK-1376,45570,53.1543,0.0001819,15.40962985,442.02511765007785,444.5067440363182,1 45570U 20025AR  26186.33877529  .00043497  00000+0  10440-2 0  9994,2 45570  53.1543 246.9326 0001819 323.3360  36.7520 15.40962985343579
STARLINK-1320,45572,53.0348,0.0004938,15.97849118,277.0994348916711,283.6753936031819,1 45572U 20025AT  26186.58336806  .00338458  58042-4  73327-3 0  9993,2 45572  53.0348 113.8358 0004938  84.6522  13.8465 15.97849118  6026
STARLINK-1321,45573,53.038,0.0001418,15.71839151,352.6862477666191,354.5953799546287,1 45573U 20025AU  26186.46665594  .00094140  00000+0  70723-3 0  9990,2 45573  53.0380 205.6712 0001418  63.3080 296.8083 15.71839151343830
STARLINK-1331,45578,53.0434,0.0001918,15.71547756,353.1816071041212,355.7642362700808,1 45578U 20025AZ  26186.49370100  .00067560  00000+0  51674-3 0  9994,2 45578  53.0434 212.4942 0001918  60.0774 300.0433 15.71547756344054
STARLINK-1333,45580,53.1543,0.0003329,15.37871179,450.13168778703493,454.67946303374356,1 45580U 20025BB  26185.59633871  .00057112  00000+0  15107-2 0  9996,2 45580  53.1543 252.5345 0003329 331.7626  28.3197 15.37871179343432
STARLINK-1335,45581,53.1514,0.0003057,15.39699388,444.9110925767427,449.08397983217674,1 45581U 20025BC  26186.56985745  .00053390  00000+0  13318-2 0  9991,2 45581  53.1514 244.3353 0003057 302.4188  57.6521 15.39699388343624
STARLINK-1337,45582,53.0414,0.0001936,15.78862012,332.3643806612863,334.9631899253518,1 45582U 20025BD  26186.45521223  .00112906  00000+0  62247-3 0  9992,2 45582  53.0414 200.2616 0001936  85.5203 274.6038 15.78862012344205
STARLINK-1347,45586,53.0357,0.0001797,15.71736715,352.72354785602965,355.1430539221692,1 45586U 20025BH  26186.24113857  .00095771  00000+0  72236-3 0  9992,2 45586  53.0357 173.1051 0001797  38.4901 321.6244 15.71736715344567
STARLINK-1364,45589,53.0398,0.0004271,15.7252064,348.82144506279474,354.57006820351125,1 45589U 20025BL  26186.29859685  .00085285  00000+0  62335-3 0  9994,2 45589  53.0398 209.3706 0004271  27.3106 332.8135 15.72520640344065
STARLINK-1365,45590,53.0421,0.0001936,15.67873291,363.68236986322336,366.2933078008191,1 45590U 20025BM  26186.54113925  .00058137  00000+0  51893-3 0  9997,2 45590  53.0421 243.7097 0001936  34.3086 325.8054 15.67873291343629
STARLINK-1443,45660,53.13,0.000206,15.34785725,460.1480473646898,462.9660013027151,1 45660U 20035D   26186.29294440  .00064060  00000+0  18679-2 0  9996,2 45660  53.1300 238.4602 0002060  33.1906 326.9225 15.34785725336761
STARLINK-1446,45663,53.0199,0.0002157,15.49339202,417.19188342522375,420.12402076755916,1 45663U 20035G   26186.34815308  .00037539  00000+0  67895-3 0  9993,2 45663  53.0199 157.9498 0002157   0.4987 359.6022 15.49339202337872
STARLINK-1448,45665,53.0393,0.0002325,15.76154381,339.7859809282736,342.9105415747563,1 45665U 20035J   26186.42918462  .00078975  00000+0  49429-3 0  9991,2 45665  53.0393 195.8079 0002325  76.0232 284.1046 15.76154381337348
STARLINK-1451,45668,53.0512,0.0001505,15.155364,518.3125039784918,520.3886477388251,1 45668U 20035M   26186.34022239  .00018529  00000+0  97942-3 0  9995,2 45668  53.0512 252.5969 0001505 350.0122  10.0841 15.15536400336555
STARLINK-1452,45669,53.0227,0.0007018,15.64004506,371.3631783070323,380.8434299979408,1 45669U 20035N   26186.56597243  .00106010  00000+0  10925-2 0  9990,2 45669  53.0227 172.3858 0007018  46.1293 314.0300 15.64004506337696
STARLINK-1453,45670,53.0361,0.0001954,15.76848231,338.06436094256696,340.68956539937335,1 45670U 20035P   26186.38906803  .00127936  00000+0  76975-3 0  9996,2 45670  53.0361 156.1917 0001954 120.3369 239.7844 15.76848231337796
STARLINK-1454,45671,53.0409,0.0001859,15.74651556,344.37295515912865,346.8728490907388,1 45671U 20035Q   26186.46194511  .00092770  00000+0  61820-3 0  9991,2 45671  53.0409 197.1955 0001859  65.3300 294.7912 15.74651556337320
STARLINK-1456,45673,53.0391,0.0001575,15.7118815,354.43961960619254,356.56071531394355,1 45673U 20035S   26186.40522398  .00081883  00000+0  63375-3 0  9995,2 45673  53.0391 192.5051 0001575  65.8007 294.3174 15.71188150337409
STARLINK-1458,45675,53.0422,0.0005224,15.62276189,377.5527625531249,384.61479642353424,1 45675U 20035U   26186.32770536  .00171310  00000+0  18712-2 0  9996,2 45675  53.0422 209.2629 0005224  27.8378 332.2913 15.62276189337129
STARLINK-1460,45676,53.1549,0.0004047,15.37814701,449.8084257728351,455.3372022963158,1 45676U 20035V   26186.28970401  .00086266  00000+0  22718-2 0  9991,2 45676  53.1549 236.4961 0004047 351.7910   8.3027 15.37814701336750
STARLINK-1392,45677,53.1505,0.0004747,15.41245727,439.1939224278758,445.66937030073495,1 45677U 20035W   26186.50655378  .00037009  00000+0  88196-3 0  9994,2 45677  53.1505 233.4298 0004747 351.1934   8.8987 15.41245727336852
STARLINK-1394,45679,53.038,0.0001648,15.69734309,358.5467997822616,360.76757674671444,1 45679U 20035Y   26186.42237150  .00074905  00000+0  61685-3 0  9991,2 45679  53.0380 182.8623 0001648  76.8038 283.3162 15.69734309337536
STARLINK-1402,45685,53.0386,0.0001364,15.67067978,366.3777489930908,368.21790361370677,1 45685U 20035AE  26186.58336806 -.00052505  00000+0 -48077-3 0  9997,2 45685  53.0386 174.3313 0001364  94.9334  65.2982 15.67067978  5837
STARLINK-1404,45686,53.154,0.0004371,15.47079933,422.29967800977556,428.2472194240436,1 45686U 20035AF  26186.45322620  .00055120  00000+0  10719-2 0  9998,2 45686  53.1540 214.1007 0004371 340.6853  19.3989 15.47079933337121
STARLINK-1413,45689,53.1533,0.0004442,15.37524512,450.3976793812799,456.46684551403814,1 45689U 20035AJ  26186.33025872  .00044912  00000+0  12054-2 0  9998,2 45689  53.1533 220.9669 0004442 355.1218   4.9742 15.37524512336932
STARLINK-1417,45693,53.0464,0.0002543,15.18134522,509.72676737064285,513.230825964828,1 45693U 20035AN  26186.52354402  .00006693  00000+0  33894-3 0  9998,2 45693  53.0464 237.9121 0002543 263.3886  96.6818 15.18134522336761
STARLINK-1420,45695,53.0436,0.0001669,15.73793665,346.94353701049477,349.1887436187317,1 45695U 20035AQ  26186.24958689  .00102563  00000+0  70793-3 0  9998,2 45695  53.0436 166.2254 0001669 108.2723 251.8477 15.73793665337754
STARLINK-1422,45696,53.1534,0.0001459,15.39340922,447.061131808342,449.0530152389965,1 45696U 20035AR  26186.31883151  .00075512  00000+0  18964-2 0  9992,2 45696  53.1534 220.8109 0001459  62.9619 297.1535 15.39340922337011
